COSMOS 1743             
1 16719U 86034A   25312.13713477  .00034694  00000+0  62122-3 0  9992
2 16719  82.5375 200.4626 0008020  31.8337 328.3397 15.49769211161379
SL-14 R/B               
1 16792U 86046B   25312.15834502  .00000742  00000+0  83085-4 0  9990
2 16792  82.4840 194.9687 0021618 270.0511  89.8227 14.85432399108363
SL-14 R/B               
1 16882U 86055B   25311.88864573  .00000941  00000+0  10594-3 0  9995
2 16882  82.5211 241.1153 0019582  19.7864  43.6539 14.85471485101282
AJISAI (EGS)            
1 16908U 86061A   25312.05862479 -.00000116  00000+0 -13111-3 0  9998
2 16908  50.0072 107.3583 0011169 338.4449 127.7542 12.44514152452851
COSMOS 1812             
1 17295U 87003A   25312.09726991  .00077451  00000+0  68073-3 0  9998
2 17295  82.4883 329.3135 0004282 150.2094 209.9412 15.68511924125212
SL-14 R/B               
1 17567U 87024B   25312.10117690  .00000795  00000+0  88097-4 0  9991
2 17567  82.5306 206.9883 0017078 306.7941  53.1707 14.85971285 70078
COSMOS 1833             
1 17589U 87027A   25312.17165654 -.00000233  00000+0 -99006-4 0  9999
2 17589  70.9154 221.4433 0020982  20.5532 339.6429 14.13021510993145
SL-16 R/B               
1 17590U 87027B   25312.07449542  .00000252  00000+0  14864-3 0  9998
2 17590  71.0011 172.7635 0006989 295.9517  64.0886 14.17146014998158
SL-14 R/B               
1 17912U 87038B   25311.69682002  .00000927  00000+0  10506-3 0  9993
2 17912  82.5031  51.6987 0018716 203.9699 156.0648 14.85206414 61123
COSMOS 1844             
1 17973U 87041A   25312.19399804  .00000495  00000+0  28178-3 0  9999
2 17973  70.8980 290.4329 0031994 208.5754 151.3615 14.14516388986407
SL-14 R/B               
1 18153U 87055B   25312.16641113  .00000837  00000+0  93904-4 0  9995
2 18153  82.4969 103.5699 0021966  57.6496 302.6842 14.85463448 51897
COSMOS 1867             
1 18187U 87060A   25312.16061534  .00000011  00000+0  41945-4 0  9993
2 18187  65.0100 287.0367 0013739 267.6226  92.3285 14.31477125  2541
