CCSDS_OMM_VERS = 2.0
CREATION_DATE  = 
ORIGINATOR     = 

OBJECT_NAME    = COSMOS 1743
OBJECT_ID      = 1986-034A
CENTER_NAME    = EARTH
REF_FRAME      = TEME
TIME_SYSTEM    = UTC
MEAN_ELEMENT_THEORY = SGP/SGP4

EPOCH          = 2025-11-08T03:17:28.444128
MEAN_MOTION    = 15.49769211
ECCENTRICITY   = .000802
INCLINATION    = 82.5375
RA_OF_ASC_NODE = 200.4626
ARG_OF_PERICENTER = 31.8337
MEAN_ANOMALY   = 328.3397

EPHEMERIS_TYPE = 0
CLASSIFICATION_TYPE = U
NORAD_CAT_ID   = 16719
ELEMENT_SET_NO = 999
REV_AT_EPOCH   = 16137
BSTAR          = .62122E-3
MEAN_MOTION_DOT = .34694E-3
MEAN_MOTION_DDOT = 0

CCSDS_OMM_VERS = 2.0
CREATION_DATE  = 
ORIGINATOR     = 

OBJECT_NAME    = SL-14 R/B
OBJECT_ID      = 1986-046B
CENTER_NAME    = EARTH
REF_FRAME      = TEME
TIME_SYSTEM    = UTC
MEAN_ELEMENT_THEORY = SGP/SGP4

EPOCH          = 2025-11-08T03:48:01.009728
MEAN_MOTION    = 14.85432399
ECCENTRICITY   = .0021618
INCLINATION    = 82.4840
RA_OF_ASC_NODE = 194.9687
ARG_OF_PERICENTER = 270.0511
MEAN_ANOMALY   = 89.8227

EPHEMERIS_TYPE = 0
CLASSIFICATION_TYPE = U
NORAD_CAT_ID   = 16792
ELEMENT_SET_NO = 999
REV_AT_EPOCH   = 10836
BSTAR          = .83085E-4
MEAN_MOTION_DOT = .742E-5
MEAN_MOTION_DDOT = 0

CCSDS_OMM_VERS = 2.0
CREATION_DATE  = 
ORIGINATOR     = 

OBJECT_NAME    = SL-14 R/B
OBJECT_ID      = 1986-055B
CENTER_NAME    = EARTH
REF_FRAME      = TEME
TIME_SYSTEM    = UTC
MEAN_ELEMENT_THEORY = SGP/SGP4

EPOCH          = 2025-11-07T21:19:38.991072
MEAN_MOTION    = 14.85471485
ECCENTRICITY   = .0019582
INCLINATION    = 82.5211
RA_OF_ASC_NODE = 241.1153
ARG_OF_PERICENTER = 19.7864
MEAN_ANOMALY   = 43.6539

EPHEMERIS_TYPE = 0
CLASSIFICATION_TYPE = U
NORAD_CAT_ID   = 16882
ELEMENT_SET_NO = 999
REV_AT_EPOCH   = 10128
BSTAR          = .10594E-3
MEAN_MOTION_DOT = .941E-5
MEAN_MOTION_DDOT = 0

CCSDS_OMM_VERS = 2.0
CREATION_DATE  = 
ORIGINATOR     = 

OBJECT_NAME    = AJISAI (EGS)
OBJECT_ID      = 1986-061A
CENTER_NAME    = EARTH
REF_FRAME      = TEME
TIME_SYSTEM    = UTC
MEAN_ELEMENT_THEORY = SGP/SGP4

EPOCH          = 2025-11-08T01:24:25.181856
MEAN_MOTION    = 12.44514152
ECCENTRICITY   = .0011169
INCLINATION    = 50.0072
RA_OF_ASC_NODE = 107.3583
ARG_OF_PERICENTER = 338.4449
MEAN_ANOMALY   = 127.7542

EPHEMERIS_TYPE = 0
CLASSIFICATION_TYPE = U
NORAD_CAT_ID   = 16908
ELEMENT_SET_NO = 999
REV_AT_EPOCH   = 45285
BSTAR          = -.13111E-3
MEAN_MOTION_DOT = -.116E-5
MEAN_MOTION_DDOT = 0

CCSDS_OMM_VERS = 2.0
CREATION_DATE  = 
ORIGINATOR     = 

OBJECT_NAME    = COSMOS 1812
OBJECT_ID      = 1987-003A
CENTER_NAME    = EARTH
REF_FRAME      = TEME
TIME_SYSTEM    = UTC
MEAN_ELEMENT_THEORY = SGP/SGP4

EPOCH          = 2025-11-08T02:20:04.120224
MEAN_MOTION    = 15.68511924
ECCENTRICITY   = .0004282
INCLINATION    = 82.4883
RA_OF_ASC_NODE = 329.3135
ARG_OF_PERICENTER = 150.2094
MEAN_ANOMALY   = 209.9412

EPHEMERIS_TYPE = 0
CLASSIFICATION_TYPE = U
NORAD_CAT_ID   = 17295
ELEMENT_SET_NO = 999
REV_AT_EPOCH   = 12521
BSTAR          = .68073E-3
MEAN_MOTION_DOT = .77451E-3
MEAN_MOTION_DDOT = 0

CCSDS_OMM_VERS = 2.0
CREATION_DATE  = 
ORIGINATOR     = 

OBJECT_NAME    = SL-14 R/B
OBJECT_ID      = 1987-024B
CENTER_NAME    = EARTH
REF_FRAME      = TEME
TIME_SYSTEM    = UTC
MEAN_ELEMENT_THEORY = SGP/SGP4

EPOCH          = 2025-11-08T02:25:41.684160
MEAN_MOTION    = 14.85971285
ECCENTRICITY   = .0017078
INCLINATION    = 82.5306
RA_OF_ASC_NODE = 206.9883
ARG_OF_PERICENTER = 306.7941
MEAN_ANOMALY   = 53.1707

EPHEMERIS_TYPE = 0
CLASSIFICATION_TYPE = U
NORAD_CAT_ID   = 17567
ELEMENT_SET_NO = 999
REV_AT_EPOCH   = 7007
BSTAR          = .88097E-4
MEAN_MOTION_DOT = .795E-5
MEAN_MOTION_DDOT = 0

CCSDS_OMM_VERS = 2.0
CREATION_DATE  = 
ORIGINATOR     = 

OBJECT_NAME    = COSMOS 1833
OBJECT_ID      = 1987-027A
CENTER_NAME    = EARTH
REF_FRAME      = TEME
TIME_SYSTEM    = UTC
MEAN_ELEMENT_THEORY = SGP/SGP4

EPOCH          = 2025-11-08T04:07:11.125056
MEAN_MOTION    = 14.13021510
ECCENTRICITY   = .0020982
INCLINATION    = 70.9154
RA_OF_ASC_NODE = 221.4433
ARG_OF_PERICENTER = 20.5532
MEAN_ANOMALY   = 339.6429

EPHEMERIS_TYPE = 0
CLASSIFICATION_TYPE = U
NORAD_CAT_ID   = 17589
ELEMENT_SET_NO = 999
REV_AT_EPOCH   = 99314
BSTAR          = -.99006E-4
MEAN_MOTION_DOT = -.233E-5
MEAN_MOTION_DDOT = 0

CCSDS_OMM_VERS = 2.0
CREATION_DATE  = 
ORIGINATOR     = 

OBJECT_NAME    = SL-16 R/B
OBJECT_ID      = 1987-027B
CENTER_NAME    = EARTH
REF_FRAME      = TEME
TIME_SYSTEM    = UTC
MEAN_ELEMENT_THEORY = SGP/SGP4

EPOCH          = 2025-11-08T01:47:16.404288
MEAN_MOTION    = 14.17146014
ECCENTRICITY   = .0006989
INCLINATION    = 71.0011
RA_OF_ASC_NODE = 172.7635
ARG_OF_PERICENTER = 295.9517
MEAN_ANOMALY   = 64.0886

EPHEMERIS_TYPE = 0
CLASSIFICATION_TYPE = U
NORAD_CAT_ID   = 17590
ELEMENT_SET_NO = 999
REV_AT_EPOCH   = 99815
BSTAR          = .14864E-3
MEAN_MOTION_DOT = .252E-5
MEAN_MOTION_DDOT = 0

CCSDS_OMM_VERS = 2.0
CREATION_DATE  = 
ORIGINATOR     = 

OBJECT_NAME    = SL-14 R/B
OBJECT_ID      = 1987-038B
CENTER_NAME    = EARTH
REF_FRAME      = TEME
TIME_SYSTEM    = UTC
MEAN_ELEMENT_THEORY = SGP/SGP4

EPOCH          = 2025-11-07T16:43:25.249728
MEAN_MOTION    = 14.85206414
ECCENTRICITY   = .0018716
INCLINATION    = 82.5031
RA_OF_ASC_NODE = 51.6987
ARG_OF_PERICENTER = 203.9699
MEAN_ANOMALY   = 156.0648

EPHEMERIS_TYPE = 0
CLASSIFICATION_TYPE = U
NORAD_CAT_ID   = 17912
ELEMENT_SET_NO = 999
REV_AT_EPOCH   = 6112
BSTAR          = .10506E-3
MEAN_MOTION_DOT = .927E-5
MEAN_MOTION_DDOT = 0

CCSDS_OMM_VERS = 2.0
CREATION_DATE  = 
ORIGINATOR     = 

OBJECT_NAME    = COSMOS 1844
OBJECT_ID      = 1987-041A
CENTER_NAME    = EARTH
REF_FRAME      = TEME
TIME_SYSTEM    = UTC
MEAN_ELEMENT_THEORY = SGP/SGP4

EPOCH          = 2025-11-08T04:39:21.430656
MEAN_MOTION    = 14.14516388
ECCENTRICITY   = .0031994
INCLINATION    = 70.8980
RA_OF_ASC_NODE = 290.4329
ARG_OF_PERICENTER = 208.5754
MEAN_ANOMALY   = 151.3615

EPHEMERIS_TYPE = 0
CLASSIFICATION_TYPE = U
NORAD_CAT_ID   = 17973
ELEMENT_SET_NO = 999
REV_AT_EPOCH   = 98640
BSTAR          = .28178E-3
MEAN_MOTION_DOT = .495E-5
MEAN_MOTION_DDOT = 0

CCSDS_OMM_VERS = 2.0
CREATION_DATE  = 
ORIGINATOR     = 

OBJECT_NAME    = SL-14 R/B
OBJECT_ID      = 1987-055B
CENTER_NAME    = EARTH
REF_FRAME      = TEME
TIME_SYSTEM    = UTC
MEAN_ELEMENT_THEORY = SGP/SGP4

EPOCH          = 2025-11-08T03:59:37.921632
MEAN_MOTION    = 14.85463448
ECCENTRICITY   = .0021966
INCLINATION    = 82.4969
RA_OF_ASC_NODE = 103.5699
ARG_OF_PERICENTER = 57.6496
MEAN_ANOMALY   = 302.6842

EPHEMERIS_TYPE = 0
CLASSIFICATION_TYPE = U
NORAD_CAT_ID   = 18153
ELEMENT_SET_NO = 999
REV_AT_EPOCH   = 5189
BSTAR          = .93904E-4
MEAN_MOTION_DOT = .837E-5
MEAN_MOTION_DDOT = 0

CCSDS_OMM_VERS = 2.0
CREATION_DATE  = 
ORIGINATOR     = 

OBJECT_NAME    = COSMOS 1867
OBJECT_ID      = 1987-060A
CENTER_NAME    = EARTH
REF_FRAME      = TEME
TIME_SYSTEM    = UTC
MEAN_ELEMENT_THEORY = SGP/SGP4

EPOCH          = 2025-11-08T03:51:17.165376
MEAN_MOTION    = 14.31477125
ECCENTRICITY   = .0013739
INCLINATION    = 65.0100
RA_OF_ASC_NODE = 287.0367
ARG_OF_PERICENTER = 267.6226
MEAN_ANOMALY   = 92.3285

EPHEMERIS_TYPE = 0
CLASSIFICATION_TYPE = U
NORAD_CAT_ID   = 18187
ELEMENT_SET_NO = 999
REV_AT_EPOCH   = 254
BSTAR          = .41945E-4
MEAN_MOTION_DOT = .11E-6
MEAN_MOTION_DDOT = 0

